{"spkid": "20310560", "covariance": {"elements": [{"units": null, "title": "eccentricity", "value": ".4988842407106614", "name": "e", "sigma": 5.28663590038545e-09, "label": "e"}, {"sigma": 5.29509741400103e-09, "name": "q", "units": "au", "value": ".5258156273597145", "title": "perihelion distance", "label": "q"}, {"label": "tp", "sigma": 7.55608225928761e-07, "name": "tp", "value": "2457167.653034939860", "title": "time of perihelion passage", "units": "TDB"}, {"name": "om", "sigma": 6.45438793394826e-07, "units": "deg", "title": "longitude of the ascending node", "value": "165.6015594658389", "label": "node"}, {"name": "w", "sigma": 8.1521392509079e-07, "title": "argument of perihelion", "value": "72.085430821648", "units": "deg", "label": "peri"}, {"label": "i", "title": "inclination", "value": "26.61450611656872", "units": "deg", "sigma": 2.30836449236881e-07, "name": "i"}], "data": [["2.794851914324425E-17", "-2.798026208400438E-17", "1.880321773589793E-15", "-7.085447105491666E-16", "1.236952695622016E-15", "3.534534574386245E-16"], ["-2.798026208400438E-17", "2.803805662376044E-17", "-1.922927046209056E-15", "7.291220309127731E-16", "-1.258416570472681E-15", "-3.475156305029639E-16"], ["1.880321773589793E-15", "-1.922927046209056E-15", "5.709437910912092E-13", "-3.540541490773586E-13", "5.253377584610268E-13", "-4.394274452843506E-14"], ["-7.085447105491666E-16", "7.291220309127731E-16", "-3.540541490773586E-13", "4.165912360189687E-13", "-5.062462141685578E-13", "5.544527231216144E-14"], ["1.236952695622016E-15", "-1.258416570472681E-15", "5.253377584610268E-13", "-5.062462141685578E-13", "6.645737436619321E-13", "-7.043342294638018E-14"], ["3.534534574386245E-16", "-3.475156305029639E-16", "-4.394274452843506E-14", "5.544527231216144E-14", "-7.043342294638018E-14", "5.328546629629095E-14"]], "labels": ["e", "q", "tp", "node", "peri", "i"], "epoch": "2457185.5"}, "elements": [{"title": "eccentricity", "value": ".499053599768192", "units": null, "name": "e", "sigma": "5.2761E-9", "label": "e"}, {"sigma": "5.7675E-10", "name": "a", "units": "au", "value": "1.049437312687728", "title": "semi-major axis", "label": "a"}, {"name": "q", "sigma": "5.3007E-9", "value": ".5257118440598595", "title": "perihelion distance", "units": "au", "label": "q"}, {"label": "i", "title": "inclination; angle with respect to x-y ecliptic plane", "value": "26.60393150918484", "units": "deg", "sigma": "2.305E-7", "name": "i"}, {"value": "165.5403637718832", "title": "longitude of the ascending node", "units": "deg", "name": "om", "sigma": "6.4571E-7", "label": "node"}, {"title": "argument of perihelion", "value": "72.16439742072484", "units": "deg", "name": "w", "sigma": "8.1504E-7", "label": "peri"}, {"sigma": "3.304E-6", "name": "ma", "title": "mean anomaly", "value": "97.54195724741341", "units": "deg", "label": "M"}, {"name": "tp", "sigma": "3.5182E-6", "title": "time of perihelion passage", "value": "2461094.104773354417", "units": "TDB", "label": "tp"}, {"label": "period", "name": "per", "sigma": "3.2371E-7", "title": "sidereal orbital period", "value": "392.6749336724591", "units": "d"}, {"units": "deg/d", "value": ".9167888477961413", "title": "mean motion", "sigma": "7.5577E-10", "name": "n", "label": "n"}, {"units": "au", "title": "aphelion distance", "value": "1.573162781315596", "name": "ad", "sigma": "8.6458E-10", "label": "Q"}], "epoch": "2461200.5"}